[
    {
        "Altitude(m)": 604983.0528924111,
        "Argument of Periapsis(deg)": 0.0,
        "Eccentricity": 0.0,
        "Inclination(deg)": 60.0,
        "Latitude(deg)": -0.09258378650728477,
        "Longitude(deg)": 155.08391623679117,
        "Mean Anomaly(deg)": 180.0,
        "RAAN(deg)": 75.0,
        "Satellite Name": "Test1 341",
        "Satellite Number": 341,
        "Semi-Major Axis(m)": 6980739.136638005,
        "Time(s)": 0
    },
    {
        "Altitude(m)": 605055.3319085111,
        "Argument of Periapsis(deg)": 0.00010418945913296404,
        "Eccentricity": 0.0,
        "Inclination(deg)": 60.0,
        "Latitude(deg)": -0.6329941425953666,
        "Longitude(deg)": 155.35204018690735,
        "Mean Anomaly(deg)": 180.62010614546185,
        "RAAN(deg)": 74.99957995086027,
        "Satellite Name": "Test1 341",
        "Satellite Number": 341,
        "Semi-Major Axis(m)": 6980739.136638005,
        "Time(s)": 10
    }
]